S-NET B                 
1 43187U 18014H   22266.81776688  .00002531  00000+0  21800-3 0  9990
2 43187  97.6477 170.5912 0009565 338.0184  22.0627 14.98205162253649
S-NET A                 
1 43188U 18014J   22266.68450003  .00002475  00000+0  21326-3 0  9996
2 43188  97.6481 170.5297 0009581 338.5385  21.5434 14.98203972253622
S-NET C                 
1 43189U 18014K   22266.68538219  .00002522  00000+0  21719-3 0  9992
2 43189  97.6477 170.4489 0009591 338.7134  21.3688 14.98201676252172
FENGMANIU-1 (FMN-1)     
1 43192U 18015A   22267.41287472  .00034104  00000+0  76092-3 0  9996
2 43192  97.5463  55.6097 0009703  34.6854  50.0261 15.43440363258682
SHAONIAN XING           
1 43199U 18015H   22267.42128549  .00018693  00000+0  51439-3 0  9996
2 43199  97.5257  49.7677 0012569  51.5149  33.3684 15.37147177258635
LUOJIA-1 01             
1 43485U 18048B   22267.49161138  .00001020  00000+0  14998-3 0  9993
2 43485  97.9294 347.1471 0010048 236.3520 123.6727 14.77529145232490
SURFSAT                 
1 43614U 18070B   22267.51152196  .00062708  00000+0  69063-3 0  9992
2 43614  93.0173 140.9771 0008082   6.3963 353.7405 15.62891982226498
CP7 (DAVE)              
1 43615U 18070C   22267.17582335  .00048603  00000+0  58420-3 0  9990
2 43615  93.0168 140.5693 0009181   9.7475 350.3967 15.60653883226397
ELFIN-B                 
1 43616U 18070D   22267.31997781  .01029701  61408-3  12403-2 0  9994
2 43616  92.9992 143.0879 0002683 189.7879 170.3361 16.08448371226960
CZ-4B R/B               
1 43656U 18081B   22267.41151770  .00000261  00000+0  96989-4 0  9990
2 43656  99.4125  49.3056 0207738 219.8038 138.7746 14.30606466204504
CUBEBEL-1 (BSUSAT-1)    
1 43666U 18083E   22267.41521941  .00009009  00000+0  36590-3 0  9994
2 43666  97.4157 295.0491 0012076 354.4900 122.1577 15.24742826216556
CHANGSHAGAOXIN (TY 4-01)
1 43669U 18083H   22267.50522214  .00008553  00000+0  36531-3 0  9999
2 43669  97.4112 290.8099 0009049 355.7450 146.8599 15.23084107216374
TEN-KOH                 
1 43677U 18084G   22266.84986542  .00001500  00000+0  15616-3 0  9999
2 43677  97.9777  37.8805 0014726 310.3090  49.6840 14.91315690212344
DIWATA-2B               
1 43678U 18084H   22267.48901643  .00001224  00000+0  12555-3 0  9992
2 43678  97.9842  42.0012 0009060 326.2626  33.7990 14.92320390212627
STARS-AO                
1 43679U 18084J   22266.92919686  .00002945  00000+0  28230-3 0  9995
2 43679  97.9881  43.6126 0008052 332.3311  27.7479 14.93924563212643
AUTCUBE 2               
1 43681U 18084K   22267.32456881  .00002185  00000+0  21458-3 0  9997
2 43681  97.9845  42.5143 0008411 324.7529  35.3133 14.93225337212609
IRVINE01                
1 43693U 18088D   22266.98271899  .00060586  00000+0  12939-2 0  9991
2 43693  85.0245 243.7117 0015303  99.3149 260.9837 15.44497271215392
ES'HAIL 2               
1 43700U 18090A   22267.20327041  .00000142  00000+0  00000+0 0  9995
2 43700   0.0264 189.6462 0002096  28.7582 243.5955  1.00268547 14262
FACSAT-1                
1 43721U 18096C   22267.41808113  .00022367  00000+0  56539-3 0  9996
2 43721  97.3442 347.3302 0013500  61.2680  69.1760 15.39710021213185
CENTAURI-2              
1 43722U 18096D   22267.21209463  .00036905  00000+0  79852-3 0  9994
2 43722  97.3506 349.7386 0011685  56.0592 304.1766 15.44311914213295
3CAT-1                  
1 43728U 18096K   22266.17890371  .00031516  00000+0  68646-3 0  9990
2 43728  97.3519 349.4630 0011749  63.3157 296.9293 15.44145916213170
INNOSAT-2               
1 43738U 18096V   22267.52444786  .00088233  00000+0  10609-2 0  9999
2 43738  97.3600 359.1011 0008749  34.8562  92.0602 15.60517105213891
REAKTOR HELLO WORLD     
1 43743U 18096AA  22266.77151130  .00015298  00000+0  43500-3 0  9997
2 43743  97.3476 346.3335 0015309  69.2814 291.0070 15.36124102213048
ELYSIUM STAR 2 & LFF    
1 43760U 18099C   22266.85735173  .00005741  00000+0  47251-3 0  9992
2 43760  97.6202 333.2853 0010974 286.6467  73.3551 14.99443197207863
2018-099D               
1 43761U 18099D   22266.79535235  .00001247  00000+0  11588-3 0  9994
2 43761  97.6136 330.8627 0012574 301.6116  58.3889 14.96077316207724
AISTECHSAT 2            
1 43768U 18099L   22266.69794249  .00001436  00000+0  13277-3 0  9999
2 43768  97.6078 329.2286 0009961 302.7878  57.2383 14.96065280207377
FOX-1CLIFF (AO-95)      
1 43770U 18099N   22267.13945003  .00002885  00000+0  25638-3 0  9991
2 43770  97.6131 330.9058 0012491 309.3788  50.6327 14.96842124207770
RANGE-A                 
1 43772U 18099Q   22266.82182299  .00002597  00000+0  22699-3 0  9992
2 43772  97.6249 332.5136 0012084 295.3570  64.6400 14.97579643207757
RANGE-B                 
1 43773U 18099R   22267.42610660  .00001288  00000+0  11875-3 0  9998
2 43773  97.6041 329.9027 0011926 293.7940  66.2031 14.96322774207796
2018-099T               
1 43775U 18099T   22266.68608681  .00000994  00000+0  92931-4 0  9993
2 43775  97.6123 330.5095 0012992 301.6383  58.3570 14.96253693207698
MOVE-II                 
1 43780U 18099Y   22266.73903236  .00004687  00000+0  39736-3 0  9995
2 43780  97.6177 331.8962 0010700 305.5058  54.5166 14.98391166207775
SNUSAT-2                
1 43782U 18099AA  22266.84222761  .00002139  00000+0  19080-3 0  9996
2 43782  97.6119 331.1046 0011143 292.4906  67.5136 14.96969284207756
SNUGLITE                
1 43784U 18099AC  22266.73103335  .00003089  00000+0  27145-3 0  9997
2 43784  97.6090 330.6239 0012794 302.1554  57.8426 14.97224900207760
ITASAT 1                
1 43786U 18099AE  22266.79063415  .00002284  00000+0  20355-3 0  9991
2 43786  97.6144 331.5355 0013251 300.9253  59.0666 14.96923977207761
KAZSCISAT-1             
1 43787U 18099AF  22266.92292777  .00004070  00000+0  34603-3 0  9998
2 43787  97.6065 330.9477 0011559 293.1177  66.8827 14.98341064207846
EAGLET-I                
1 43790U 18099AJ  22267.14432243  .00002060  00000+0  18356-3 0  9995
2 43790  97.6145 332.4234 0011506 305.3400  54.6746 14.97043323207553
ESEO                    
1 43792U 18099AL  22267.18687508  .00001295  00000+0  11930-3 0  9997
2 43792  97.6088 331.5317 0011723 301.3242  58.6832 14.96359109207599
CSIM-FD                 
1 43793U 18099AM  22266.86829275  .00004812  00000+0  40093-3 0  9991
2 43793  97.6176 333.0213 0009682 292.4682  67.5515 14.99060873207620
ASTROCAST 0.1           
1 43798U 18099AS  22266.86586745  .00004151  00000+0  35430-3 0  9993
2 43798  97.6155 332.7758 0009989 276.5355  83.4730 14.98191779207841
JY1SAT (JO-97)          
1 43803U 18099AX  22267.17397836  .00002599  00000+0  22747-3 0  9997
2 43803  97.6104 331.6973 0013517 297.3568  62.6278 14.97509723207845
SUOMI-100               
1 43804U 18099AY  22266.86482202  .00003180  00000+0  27807-3 0  9994
2 43804  97.6109 331.2962 0012856 300.2498  59.7451 14.97392105207806
AL-FARABI 2             
1 43805U 18099AZ  22267.07825919  .00003456  00000+0  29647-3 0  9995
2 43805  97.6150 332.1061 0012567 299.3107  60.6808 14.98089954207866
CENTAURI-1              
1 43809U 18099BD  22266.71783996  .00001872  00000+0  16730-3 0  9996
2 43809  97.6113 331.4375 0013494 301.3676  58.6225 14.97025254207473
CHOMPTT                 
1 43855U 18104G   22266.72689548  .00008664  00000+0  30583-3 0  9991
2 43855  85.0388 345.5722 0013335 227.3627 132.6496 15.28976810209730
DAVINCI                 
1 43857U 18104J   22266.68025413  .00045029  00000+0  97132-3 0  9992
2 43857  85.0285 342.2482 0008376 239.6497 120.3929 15.44340630209980
UWE-4                   
1 43880U 18111E   22266.70155892  .00002990  00000+0  25374-3 0  9993
2 43880  97.6602 171.2790 0012022   2.3105 357.8171 14.98626617204413
ZACUBE-2                
1 43907U 18111AH  22267.44145104  .00007222  00000+0  25682-3 0  9995
2 43907  97.1751 150.2349 0021385  87.2172  19.9506 15.29055804208419
MICRODRAGON             
1 43935U 19003D   22266.82667880  .00006619  00000+0  25269-3 0  9998
2 43935  97.1316 292.5381 0016558 178.5231 181.6061 15.26833509204703
AOBA VELOX-IV           
1 43940U 19003J   22267.07571046  .00034142  00000+0  79506-3 0  9995
2 43940  97.1185 300.2785 0017427 142.8828 217.3628 15.42043821205301
M6P                     
1 44109U 19018AF  22266.80734587  .00022663  00000+0  50218-3 0  9994
2 44109  97.3923 352.1448 0045068 131.5975 228.9148 15.42669972194609
FORMOSAT 7-4            
1 44350U 19036M   22266.84734420  .00004331  00000+0  23897-3 0  9997
2 44350  24.0001  66.5818 0005539 173.5126 186.5450 15.09945892178351
PAINANI 1               
1 44365U 19037A   22266.04070870  .00062048  00000+0  69615-3 0  9995
2 44365  44.9952 173.4403 0008939 140.5723 219.5825 15.61812488182456
METEOR-M2 2             
1 44387U 19038A   22267.52561637  .00000018  00000+0  27136-4 0  9992
2 44387  98.7331 227.5571 0001725  29.2861 330.8402 14.23720703167509
VDNH-80                 
1 44392U 19038G   22267.39195600  .00007945  00000+0  38727-3 0  9999
2 44392  97.6443 238.2203 0019996 144.0564 319.4907 15.18430544177851
D-STAR ONE (LIGHTSAT)   
1 44393U 19038H   22267.18366868  .00008702  00000+0  42271-3 0  9994
2 44393  97.6455 237.9150 0020272 145.2579 214.9983 15.18515365178017
AMGU-1 (AMURSAT)        
1 44394U 19038J   22266.90534806  .00008905  00000+0  42842-3 0  9992
2 44394  97.6438 237.6113 0019910 145.6848 214.5676 15.18852537177979
DOT-1                   
1 44399U 19038P   22266.89317271  .00005571  00000+0  29191-3 0  9998
2 44399  97.6499 236.1498 0023368 154.6428 205.5957 15.15972741177853
SOKRAT                  
1 44404U 19038U   22266.91255227  .00010010  00000+0  48411-3 0  9990
2 44404  97.6442 237.2475 0020401 147.8583 212.3899 15.18623864177950
LUCKY-7                 
1 44406U 19038W   22266.86908514  .00006891  00000+0  35503-3 0  9990
2 44406  97.6483 236.5451 0023335 146.7479 213.5225 15.16478593177876
